{
  "type": "FeatureCollection",
  "features": [
    {
      "type": "Feature",
      "properties": {
        "norad_id": 59626,
        "name": "LEGION 2",
        "group": "resource",
        "lat": -69.85234499466863,
        "lon": 80.55618264658314,
        "alt_km": 519.9780268291934,
        "timestamp": "2025-12-10T16:57:11.292609+00:00",
        "meta_object_name": "LEGION 2",
        "meta_object_id": "2024-081B",
        "meta_epoch": "2025-12-10T10:55:55.416864",
        "meta_mean_motion": 15.16454493,
        "meta_eccentricity": 0.0005787,
        "meta_inclination": 97.5213,
        "meta_ra_of_asc_node": 59.2003,
        "meta_arg_of_pericenter": 303.4755,
        "meta_mean_anomaly": 56.5924,
        "meta_ephemeris_type": 0,
        "meta_classification_type": "U",
        "meta_norad_cat_id": 59626,
        "meta_element_set_no": 999,
        "meta_rev_at_epoch": 8893,
        "meta_bstar": 0.00036836,
        "meta_mean_motion_dot": 7.104e-05,
        "meta_mean_motion_ddot": 0,
        "tle_line1": "1 59626U 24081B   25344.45550251  .00007104  00000+0  36836-3 0  9998",
        "tle_line2": "2 59626  97.5213  59.2003 0005787 303.4755  56.5924 15.16454493 88931"
      },
      "geometry": {
        "type": "Point",
        "coordinates": [
          80.55618264658314,
          -69.85234499466863
        ]
      }
    },
    {
      "type": "Feature",
      "properties": {
        "norad_id": 60182,
        "name": "ALOS-4 (DAICHI-4)",
        "group": "resource",
        "lat": -36.10040450380699,
        "lon": -106.24597852149542,
        "alt_km": 637.7480214625521,
        "timestamp": "2025-12-10T16:57:11.292619+00:00",
        "meta_object_name": "ALOS-4 (DAICHI-4)",
        "meta_object_id": "2024-123A",
        "meta_epoch": "2025-12-10T12:43:54.253920",
        "meta_mean_motion": 14.79476033,
        "meta_eccentricity": 0.0001422,
        "meta_inclination": 97.9225,
        "meta_ra_of_asc_node": 79.409,
        "meta_arg_of_pericenter": 101.2731,
        "meta_mean_anomaly": 258.864,
        "meta_ephemeris_type": 0,
        "meta_classification_type": "U",
        "meta_norad_cat_id": 60182,
        "meta_element_set_no": 999,
        "meta_rev_at_epoch": 7798,
        "meta_bstar": 0.00038723,
        "meta_mean_motion_dot": 2.842e-05,
        "meta_mean_motion_ddot": 0,
        "tle_line1": "1 60182U 24123A   25344.53048905  .00002842  00000+0  38723-3 0  9992",
        "tle_line2": "2 60182  97.9225  79.4090 0001422 101.2731 258.8640 14.79476033 77984"
      },
      "geometry": {
        "type": "Point",
        "coordinates": [
          -106.24597852149542,
          -36.10040450380699
        ]
      }
    },
    {
      "type": "Feature",
      "properties": {
        "norad_id": 60452,
        "name": "LEGION 3",
        "group": "resource",
        "lat": -24.58238565415358,
        "lon": -66.20902412125325,
        "alt_km": 528.614824706302,
        "timestamp": "2025-12-10T16:57:11.292629+00:00",
        "meta_object_name": "LEGION 3",
        "meta_object_id": "2024-146A",
        "meta_epoch": "2025-12-10T10:47:06.031104",
        "meta_mean_motion": 15.15723031,
        "meta_eccentricity": 0.0014643,
        "meta_inclination": 45.0022,
        "meta_ra_of_asc_node": 322.4111,
        "meta_arg_of_pericenter": 186.3263,
        "meta_mean_anomaly": 173.7433,
        "meta_ephemeris_type": 0,
        "meta_classification_type": "U",
        "meta_norad_cat_id": 60452,
        "meta_element_set_no": 999,
        "meta_rev_at_epoch": 7338,
        "meta_bstar": 0.00041865,
        "meta_mean_motion_dot": 7.877e-05,
        "meta_mean_motion_ddot": 0,
        "tle_line1": "1 60452U 24146A   25344.44937536  .00007877  00000+0  41865-3 0  9998",
        "tle_line2": "2 60452  45.0022 322.4111 0014643 186.3263 173.7433 15.15723031 73380"
      },
      "geometry": {
        "type": "Point",
        "coordinates": [
          -66.20902412125325,
          -24.58238565415358
        ]
      }
    },
    {
      "type": "Feature",
      "properties": {
        "norad_id": 60453,
        "name": "LEGION 4",
        "group": "resource",
        "lat": -26.90252024954051,
        "lon": 22.309336447964533,
        "alt_km": 515.024422369941,
        "timestamp": "2025-12-10T16:57:11.292639+00:00",
        "meta_object_name": "LEGION 4",
        "meta_object_id": "2024-146B",
        "meta_epoch": "2025-12-10T10:48:03.271104",
        "meta_mean_motion": 15.15785732,
        "meta_eccentricity": 0.0009683,
        "meta_inclination": 45.0386,
        "meta_ra_of_asc_node": 54.1511,
        "meta_arg_of_pericenter": 299.2634,
        "meta_mean_anomaly": 60.7277,
        "meta_ephemeris_type": 0,
        "meta_classification_type": "U",
        "meta_norad_cat_id": 60453,
        "meta_element_set_no": 999,
        "meta_rev_at_epoch": 7223,
        "meta_bstar": 0.00041941,
        "meta_mean_motion_dot": 7.895e-05,
        "meta_mean_motion_ddot": 0,
        "tle_line1": "1 60453U 24146B   25344.45003786  .00007895  00000+0  41941-3 0  9996",
        "tle_line2": "2 60453  45.0386  54.1511 0009683 299.2634  60.7277 15.15785732 72231"
      },
      "geometry": {
        "type": "Point",
        "coordinates": [
          22.309336447964533,
          -26.90252024954051
        ]
      }
    },
    {
      "type": "Feature",
      "properties": {
        "norad_id": 60989,
        "name": "SENTINEL-2C",
        "group": "resource",
        "lat": -24.02492880109528,
        "lon": 61.071660261929075,
        "alt_km": 794.9241481328336,
        "timestamp": "2025-12-10T16:57:11.292651+00:00",
        "meta_object_name": "SENTINEL-2C",
        "meta_object_id": "2024-157A",
        "meta_epoch": "2025-12-10T12:01:53.596992",
        "meta_mean_motion": 14.30816245,
        "meta_eccentricity": 0.0001201,
        "meta_inclination": 98.5684,
        "meta_ra_of_asc_node": 57.0161,
        "meta_arg_of_pericenter": 97.8387,
        "meta_mean_anomaly": 262.2932,
        "meta_ephemeris_type": 0,
        "meta_classification_type": "U",
        "meta_norad_cat_id": 60989,
        "meta_element_set_no": 999,
        "meta_rev_at_epoch": 6600,
        "meta_bstar": 0.00011211,
        "meta_mean_motion_dot": 2.5e-06,
        "meta_mean_motion_ddot": 0,
        "tle_line1": "1 60989U 24157A   25344.50131478  .00000250  00000+0  11211-3 0  9993",
        "tle_line2": "2 60989  98.5684  57.0161 0001201  97.8387 262.2932 14.30816245 66002"
      },
      "geometry": {
        "type": "Point",
        "coordinates": [
          61.071660261929075,
          -24.02492880109528
        ]
      }
    },
    {
      "type": "Feature",
      "properties": {
        "norad_id": 61735,
        "name": "IONOSFERA-M 1",
        "group": "resource",
        "lat": -57.607678478346,
        "lon": -131.39531592796374,
        "alt_km": 823.1560848685385,
        "timestamp": "2025-12-10T16:57:11.292662+00:00",
        "meta_object_name": "IONOSFERA-M 1",
        "meta_object_id": "2024-199A",
        "meta_epoch": "2025-12-10T13:51:09.925344",
        "meta_mean_motion": 14.22713337,
        "meta_eccentricity": 0.000106,
        "meta_inclination": 98.7411,
        "meta_ra_of_asc_node": 214.442,
        "meta_arg_of_pericenter": 24.7673,
        "meta_mean_anomaly": 335.3556,
        "meta_ephemeris_type": 0,
        "meta_classification_type": "U",
        "meta_norad_cat_id": 61735,
        "meta_element_set_no": 999,
        "meta_rev_at_epoch": 10088,
        "meta_bstar": 7.622e-05,
        "meta_mean_motion_dot": 1.26e-06,
        "meta_mean_motion_ddot": 0,
        "tle_line1": "1 61735U 24199A   25344.57719821  .00000126  00000+0  76220-4 0  9994",
        "tle_line2": "2 61735  98.7411 214.4420 0001060  24.7673 335.3556 14.22713337100887"
      },
      "geometry": {
        "type": "Point",
        "coordinates": [
          -131.39531592796374,
          -57.607678478346
        ]
      }
    },
    {
      "type": "Feature",
      "properties": {
        "norad_id": 61736,
        "name": "IONOSFERA-M 2",
        "group": "resource",
        "lat": 54.92444633028135,
        "lon": 47.1382261198263,
        "alt_km": 809.8083231014298,
        "timestamp": "2025-12-10T16:57:11.292672+00:00",
        "meta_object_name": "IONOSFERA-M 2",
        "meta_object_id": "2024-199B",
        "meta_epoch": "2025-12-10T12:59:47.287392",
        "meta_mean_motion": 14.22715491,
        "meta_eccentricity": 0.000159,
        "meta_inclination": 98.7403,
        "meta_ra_of_asc_node": 214.3191,
        "meta_arg_of_pericenter": 113.568,
        "meta_mean_anomaly": 246.5665,
        "meta_ephemeris_type": 0,
        "meta_classification_type": "U",
        "meta_norad_cat_id": 61736,
        "meta_element_set_no": 999,
        "meta_rev_at_epoch": 10400,
        "meta_bstar": 7.271e-05,
        "meta_mean_motion_dot": 1.19e-06,
        "meta_mean_motion_ddot": 0,
        "tle_line1": "1 61736U 24199B   25344.54151953  .00000119  00000+0  72710-4 0  9990",
        "tle_line2": "2 61736  98.7403 214.3191 0001590 113.5680 246.5665 14.22715491104001"
      },
      "geometry": {
        "type": "Point",
        "coordinates": [
          47.1382261198263,
          54.92444633028135
        ]
      }
    }
  ]
}